{"type": "FeatureCollection", "features": [ {"type": "Feature", "properties": {"norad_id": 54234, "name": "NOAA 21 (JPSS-2)", "group": "weather", "lat": -38.58563083414941, "lon": -79.22840694451165, "alt_km": 833.5027223554935, "timestamp": "2025-12-03T06:58:42.884274+00:00", "meta": {"OBJECT_NAME": "NOAA 21 (JPSS-2)", "OBJECT_ID": "2022-150A", "EPOCH": "2025-12-02T19:19:15.087072", "MEAN_MOTION": 14.19519656, "ECCENTRICITY": 0.0002545, "INCLINATION": 98.7447, "RA_OF_ASC_NODE": 273.2379, "ARG_OF_PERICENTER": 56.5226, "MEAN_ANOMALY": 303.6193, "EPHEMERIS_TYPE": 0, "CLASSIFICATION_TYPE": "U", "NORAD_CAT_ID": 54234, "ELEMENT_SET_NO": 999, "REV_AT_EPOCH": 15868, "BSTAR": 8.9706e-05, "MEAN_MOTION_DOT": 1.45e-06, "MEAN_MOTION_DDOT": 0}, "tle": {"line1": "1 54234U 22150A   25336.80503573  .00000145  00000+0  89706-4 0  9991", "line2": "2 54234  98.7447 273.2379 0002545  56.5226 303.6193 14.19519656158684"}}, "geometry": {"type": "Point", "coordinates": [-79.22840694451165, -38.58563083414941]}}, {"type": "Feature", "properties": {"norad_id": 54743, "name": "METEOSAT-12 (MTG-I1)", "group": "weather", "lat": 0.37564268404019696, "lon": 176.73179660406944, "alt_km": 35783.117123146214, "timestamp": "2025-12-03T06:58:42.884286+00:00", "meta": {"OBJECT_NAME": "METEOSAT-12 (MTG-I1)", "OBJECT_ID": "2022-170C", "EPOCH": "2025-12-02T17:12:31.734144", "MEAN_MOTION": 1.00273571, "ECCENTRICITY": 0.0001477, "INCLINATION": 0.7163, "RA_OF_ASC_NODE": 29.8845, "ARG_OF_PERICENTER": 214.3422, "MEAN_ANOMALY": 85.4278, "EPHEMERIS_TYPE": 0, "CLASSIFICATION_TYPE": "U", "NORAD_CAT_ID": 54743, "ELEMENT_SET_NO": 999, "REV_AT_EPOCH": 1100, "BSTAR": 0, "MEAN_MOTION_DOT": 1.3e-07, "MEAN_MOTION_DDOT": 0}, "tle": {"line1": "1 54743U 22170C   25336.71703396  .00000013  00000+0  00000+0 0  9992", "line2": "2 54743   0.7163  29.8845 0001477 214.3422  85.4278  1.00273571 11007"}}, "geometry": {"type": "Point", "coordinates": [176.73179660406944, 0.37564268404019696]}}, {"type": "Feature", "properties": {"norad_id": 55973, "name": "TIANMU-1 03", "group": "weather", "lat": 82.40472560663194, "lon": 41.31465870674181, "alt_km": 434.0977835735257, "timestamp": "2025-12-03T06:58:42.884296+00:00", "meta": {"OBJECT_NAME": "TIANMU-1 03", "OBJECT_ID": "2023-039A", "EPOCH": "2025-12-02T19:40:19.500960", "MEAN_MOTION": 15.40471434, "ECCENTRICITY": 0.0004547, "INCLINATION": 97.5101, "RA_OF_ASC_NODE": 139.1973, "ARG_OF_PERICENTER": 89.5867, "MEAN_ANOMALY": 270.59, "EPHEMERIS_TYPE": 0, "CLASSIFICATION_TYPE": "U", "NORAD_CAT_ID": 55973, "ELEMENT_SET_NO": 999, "REV_AT_EPOCH": 15053, "BSTAR": 0.00046947, "MEAN_MOTION_DOT": 0.00018966, "MEAN_MOTION_DDOT": 0}, "tle": {"line1": "1 55973U 23039A   25336.81967015  .00018966  00000+0  46947-3 0  9994", "line2": "2 55973  97.5101 139.1973 0004547  89.5867 270.5900 15.40471434150530"}}, "geometry": {"type": "Point", "coordinates": [41.31465870674181, 82.40472560663194]}}, {"type": "Feature", "properties": {"norad_id": 55974, "name": "TIANMU-1 04", "group": "weather", "lat": -13.804975038058872, "lon": -42.97985821461875, "alt_km": 449.61427150186137, "timestamp": "2025-12-03T06:58:42.884307+00:00", "meta": {"OBJECT_NAME": "TIANMU-1 04", "OBJECT_ID": "2023-039B", "EPOCH": "2025-12-02T19:13:48.398304", "MEAN_MOTION": 15.4080049, "ECCENTRICITY": 0.0005235, "INCLINATION": 97.5033, "RA_OF_ASC_NODE": 138.3736, "ARG_OF_PERICENTER": 85.7587, "MEAN_ANOMALY": 274.4257, "EPHEMERIS_TYPE": 0, "CLASSIFICATION_TYPE": "U", "NORAD_CAT_ID": 55974, "ELEMENT_SET_NO": 999, "REV_AT_EPOCH": 15053, "BSTAR": 0.00049135, "MEAN_MOTION_DOT": 0.00020076, "MEAN_MOTION_DDOT": 0}, "tle": {"line1": "1 55974U 23039B   25336.80125461  .00020076  00000+0  49135-3 0  9992", "line2": "2 55974  97.5033 138.3736 0005235  85.7587 274.4257 15.40800490150531"}}, "geometry": {"type": "Point", "coordinates": [-42.97985821461875, -13.804975038058872]}}, {"type": "Feature", "properties": {"norad_id": 55975, "name": "TIANMU-1 05", "group": "weather", "lat": -57.69900868619422, "lon": -52.67332636487922, "alt_km": 453.95795871790415, "timestamp": "2025-12-03T06:58:42.884318+00:00", "meta": {"OBJECT_NAME": "TIANMU-1 05", "OBJECT_ID": "2023-039C", "EPOCH": "2025-12-02T20:35:34.552320", "MEAN_MOTION": 15.40431924, "ECCENTRICITY": 0.0004313, "INCLINATION": 97.5079, "RA_OF_ASC_NODE": 138.9237, "ARG_OF_PERICENTER": 106.2286, "MEAN_ANOMALY": 253.9434, "EPHEMERIS_TYPE": 0, "CLASSIFICATION_TYPE": "U", "NORAD_CAT_ID": 55975, "ELEMENT_SET_NO": 999, "REV_AT_EPOCH": 15052, "BSTAR": 0.00048033, "MEAN_MOTION_DOT": 0.00019382, "MEAN_MOTION_DDOT": 0}, "tle": {"line1": "1 55975U 23039C   25336.85803880  .00019382  00000+0  48033-3 0  9990", "line2": "2 55975  97.5079 138.9237 0004313 106.2286 253.9434 15.40431924150525"}}, "geometry": {"type": "Point", "coordinates": [-52.67332636487922, -57.69900868619422]}}, {"type": "Feature", "properties": {"norad_id": 55976, "name": "TIANMU-1 06", "group": "weather", "lat": -0.07745546615466374, "lon": -40.184898732406225, "alt_km": 446.09202487583025, "timestamp": "2025-12-03T06:58:42.884350+00:00", "meta": {"OBJECT_NAME": "TIANMU-1 06", "OBJECT_ID": "2023-039D", "EPOCH": "2025-12-02T19:17:25.519776", "MEAN_MOTION": 15.4085339, "ECCENTRICITY": 0.0004654, "INCLINATION": 97.5091, "RA_OF_ASC_NODE": 139.325, "ARG_OF_PERICENTER": 101.9293, "MEAN_ANOMALY": 258.2475, "EPHEMERIS_TYPE": 0, "CLASSIFICATION_TYPE": "U", "NORAD_CAT_ID": 55976, "ELEMENT_SET_NO": 999, "REV_AT_EPOCH": 15053, "BSTAR": 0.00048591, "MEAN_MOTION_DOT": 0.00019885, "MEAN_MOTION_DDOT": 0}, "tle": {"line1": "1 55976U 23039D   25336.80376759  .00019885  00000+0  48591-3 0  9993", "line2": "2 55976  97.5091 139.3250 0004654 101.9293 258.2475 15.40853390150537"}}, "geometry": {"type": "Point", "coordinates": [-40.184898732406225, -0.07745546615466374]}}, {"type": "Feature", "properties": {"norad_id": 56232, "name": "FENGYUN 3G", "group": "weather", "lat": 34.432166607854604, "lon": 61.02975281622145, "alt_km": 398.4927417983472, "timestamp": "2025-12-03T06:58:42.884375+00:00", "meta": {"OBJECT_NAME": "FENGYUN 3G", "OBJECT_ID": "2023-055A", "EPOCH": "2025-12-02T19:36:02.232864", "MEAN_MOTION": 15.52731117, "ECCENTRICITY": 0.000924, "INCLINATION": 49.9947, "RA_OF_ASC_NODE": 278.6268, "ARG_OF_PERICENTER": 100.8142, "MEAN_ANOMALY": 259.3866, "EPHEMERIS_TYPE": 0, "CLASSIFICATION_TYPE": "U", "NORAD_CAT_ID": 56232, "ELEMENT_SET_NO": 999, "REV_AT_EPOCH": 14948, "BSTAR": 0.00061176, "MEAN_MOTION_DOT": 0.00038328, "MEAN_MOTION_DDOT": 0}, "tle": {"line1": "1 56232U 23055A   25336.81669251  .00038328  00000+0  61176-3 0  9997", "line2": "2 56232  49.9947 278.6268 0009240 100.8142 259.3866 15.52731117149480"}}, "geometry": {"type": "Point", "coordinates": [61.02975281622145, 34.432166607854604]}}, {"type": "Feature", "properties": {"norad_id": 57166, "name": "METEOR-M2 3", "group": "weather", "lat": 72.46729323104844, "lon": 2.228137142615388, "alt_km": 802.3678391766371, "timestamp": "2025-12-03T06:58:42.884399+00:00", "meta": {"OBJECT_NAME": "METEOR-M2 3", "OBJECT_ID": "2023-091A", "EPOCH": "2025-12-02T20:30:41.447232", "MEAN_MOTION": 14.24024105, "ECCENTRICITY": 0.0004431, "INCLINATION": 98.6394, "RA_OF_ASC_NODE": 30.566, "ARG_OF_PERICENTER": 35.2592, "MEAN_ANOMALY": 324.8879, "EPHEMERIS_TYPE": 0, "CLASSIFICATION_TYPE": "U", "NORAD_CAT_ID": 57166, "ELEMENT_SET_NO": 999, "REV_AT_EPOCH": 12657, "BSTAR": 3.8738e-05, "MEAN_MOTION_DOT": 4.5e-07, "MEAN_MOTION_DDOT": 0}, "tle": {"line1": "1 57166U 23091A   25336.85464638  .00000045  00000+0  38738-4 0  9994", "line2": "2 57166  98.6394  30.5660 0004431  35.2592 324.8879 14.24024105126579"}}, "geometry": {"type": "Point", "coordinates": [2.228137142615388, 72.46729323104844]}}, {"type": "Feature", "properties": {"norad_id": 57399, "name": "TIANMU-1 07", "group": "weather", "lat": -27.80703901247543, "lon": 31.22171618828069, "alt_km": 490.7444796763366, "timestamp": "2025-12-03T06:58:42.884422+00:00", "meta": {"OBJECT_NAME": "TIANMU-1 07", "OBJECT_ID": "2023-101A", "EPOCH": "2025-12-02T20:05:53.556288", "MEAN_MOTION": 15.27842576, "ECCENTRICITY": 0.0005582, "INCLINATION": 97.2898, "RA_OF_ASC_NODE": 26.9072, "ARG_OF_PERICENTER": 106.6546, "MEAN_ANOMALY": 253.5307, "EPHEMERIS_TYPE": 0, "CLASSIFICATION_TYPE": "U", "NORAD_CAT_ID": 57399, "ELEMENT_SET_NO": 999, "REV_AT_EPOCH": 13164, "BSTAR": 0.000371, "MEAN_MOTION_DOT": 0.00010021, "MEAN_MOTION_DDOT": 0}, "tle": {"line1": "1 57399U 23101A   25336.83742542  .00010021  00000+0  37100-3 0  9991", "line2": "2 57399  97.2898  26.9072 0005582 106.6546 253.5307 15.27842576131649"}}, "geometry": {"type": "Point", "coordinates": [31.22171618828069, -27.80703901247543]}}, {"type": "Feature", "properties": {"norad_id": 57400, "name": "TIANMU-1 08", "group": "weather", "lat": 25.232813917175577, "lon": -149.39181225560873, "alt_km": 477.9547521671484, "timestamp": "2025-12-03T06:58:42.884439+00:00", "meta": {"OBJECT_NAME": "TIANMU-1 08", "OBJECT_ID": "2023-101B", "EPOCH": "2025-12-02T20:52:27.111072", "MEAN_MOTION": 15.27828627, "ECCENTRICITY": 0.0007448, "INCLINATION": 97.2886, "RA_OF_ASC_NODE": 26.7385, "ARG_OF_PERICENTER": 111.601, "MEAN_ANOMALY": 248.6024, "EPHEMERIS_TYPE": 0, "CLASSIFICATION_TYPE": "U", "NORAD_CAT_ID": 57400, "ELEMENT_SET_NO": 999, "REV_AT_EPOCH": 13164, "BSTAR": 0.00036264, "MEAN_MOTION_DOT": 9.793e-05, "MEAN_MOTION_DDOT": 0}, "tle": {"line1": "1 57400U 23101B   25336.86975823  .00009793  00000+0  36264-3 0  9991", "line2": "2 57400  97.2886  26.7385 0007448 111.6010 248.6024 15.27828627131641"}}, "geometry": {"type": "Point", "coordinates": [-149.39181225560873, 25.232813917175577]}}]}